NORAD_CAT_ID,OBJECT_NAME,OBJECT_TYPE,EPOCH,MEAN_MOTION,ECCENTRICITY,INCLINATION,RA_OF_ASC_NODE,ARG_OF_PERICENTER,MEAN_ANOMALY,BSTAR,MEAN_MOTION_DOT,MEAN_MOTION_DDOT,TLE_LINE0,TLE_LINE1,TLE_LINE2,SEMIMAJOR_AXIS,PERIOD,APOGEE,PERIGEE,DECAYED
49136.0,STARLINK-3084,PAYLOAD,2023-09-24 10:19:57,14.98331671,0.0003006,70.002,16.7655,264.0252,96.0564,-2.3381e-05,-3.72e-06,0.0,0 STARLINK-3084,1 49136U 21082G   23267.43052236 -.00000372  00000-0 -23381-4 0  9996,2 49136  70.0020  16.7655 0003006 264.0252  96.0564 14.98331671112089,6950.188,96.107,574.142,569.963,0.0
49136.0,STARLINK-3084,PAYLOAD,2023-09-24 13:32:13,14.98331095,0.000301,70.002,16.4291,260.3194,99.7625,-2.9299e-05,-4.43e-06,0.0,0 STARLINK-3084,1 49136U 21082G   23267.56404240 -.00000443  00000-0 -29299-4 0  9999,2 49136  70.0020  16.4291 0003010 260.3194  99.7625 14.98331095112102,6950.19,96.107,574.147,569.962,0.0
49136.0,STARLINK-3084,PAYLOAD,2023-09-24 16:44:29,14.98334785,0.0003037,70.0017,16.0921,262.1047,97.9768,-1.0938e-05,-2.24e-06,0.0,0 STARLINK-3084,1 49136U 21082G   23267.69755891 -.00000224  00000-0 -10938-4 0  9991,2 49136  70.0017  16.0921 0003037 262.1047  97.9768 14.98334785112129,6950.178,96.107,574.154,569.932,0.0
49136.0,STARLINK-3084,PAYLOAD,2023-09-25 13:34:13,14.98341486,0.0003365,70.001,13.9022,270.013,90.0644,0.00013744,1.548e-05,0.0,0 STARLINK-3084,1 49136U 21082G   23268.56543118  .00001548  00000-0  13744-3 0  9990,2 49136  70.0010  13.9022 0003365 270.0130  90.0644 14.98341486112252,6950.157,96.106,574.361,569.684,0.0
49136.0,STARLINK-3084,PAYLOAD,2023-09-25 16:46:29,14.98346838,0.0003296,70.002,13.5652,268.9603,91.1179,0.00035394,4.135e-05,0.0,0 STARLINK-3084,1 49136U 21082G   23268.69895009  .00004135  00000-0  35394-3 0  9993,2 49136  70.0020  13.5652 0003296 268.9603  91.1179 14.98346838112275,6950.141,96.106,574.297,569.715,0.0
49136.0,STARLINK-3084,PAYLOAD,2023-09-26 10:23:59,14.98322912,0.0003378,70.0021,11.7148,262.3006,97.777,-3.4747e-05,-5.08e-06,0.0,0 STARLINK-3084,1 49136U 21082G   23269.43332354 -.00000508  00000-0 -34747-4 0  9999,2 49136  70.0021  11.7148 0003378 262.3006  97.7770 14.98322912112380,6950.215,96.107,574.428,569.732,0.0
49136.0,STARLINK-3084,PAYLOAD,2023-09-26 13:36:15,14.98321203,0.0002929,70.0034,11.3802,252.2621,107.8219,-3.7587e-05,-5.41e-06,0.0,0 STARLINK-3084,1 49136U 21082G   23269.56684534 -.00000541  00000-0 -37587-4 0  9995,2 49136  70.0034  11.3802 0002929 252.2621 107.8219 14.98321203112405,6950.22,96.108,574.121,570.049,0.0
49136.0,STARLINK-3084,PAYLOAD,2023-09-26 16:48:31,14.98323481,0.0003127,70.0031,11.0431,250.869,109.2131,-1.3339e-05,-2.52e-06,0.0,0 STARLINK-3084,1 49136U 21082G   23269.70036400 -.00000252  00000-0 -13339-4 0  9992,2 49136  70.0031  11.0431 0003127 250.8690 109.2131 14.98323481112429,6950.213,96.107,574.251,569.905,0.0
49136.0,STARLINK-3084,PAYLOAD,2023-09-27 08:49:51,14.98336046,0.0003192,70.0021,9.357,269.1271,90.9523,0.00023975,2.769e-05,0.0,0 STARLINK-3084,1 49136U 21082G   23270.36795977  .00002769  00000-0  23975-3 0  9996,2 49136  70.0021   9.3570 0003192 269.1271  90.9523 14.98336046112525,6950.174,96.107,574.258,569.821,0.0
49136.0,STARLINK-3084,PAYLOAD,2023-09-27 10:25:59,14.98337735,0.0003262,70.0025,9.1893,268.0971,91.9814,0.00025761,2.983e-05,0.0,0 STARLINK-3084,1 49136U 21082G   23270.43471889  .00002983  00000-0  25761-3 0  9990,2 49136  70.0025   9.1893 0003262 268.0971  91.9814 14.98337735112539,6950.169,96.107,574.301,569.767,0.0
49136.0,STARLINK-3084,PAYLOAD,2023-09-27 16:50:31,14.98348399,0.0003264,70.0027,8.5171,269.0988,90.9797,0.00053952,6.353e-05,0.0,0 STARLINK-3084,1 49136U 21082G   23270.70175482  .00006353  00000-0  53952-3 0  9998,2 49136  70.0027   8.5171 0003264 269.0988  90.9797 14.98348399112575,6950.136,96.106,574.27,569.732,0.0
49136.0,STARLINK-3084,PAYLOAD,2023-09-28 10:28:00,14.98331285,0.0002868,70.0039,6.6661,269.8538,90.2293,0.00016588,1.887e-05,0.0,0 STARLINK-3084,1 49136U 21082G   23271.43612133  .00001887  00000-0  16588-3 0  9999,2 49136  70.0039   6.6661 0002868 269.8538  90.2293 14.98331285112681,6950.189,96.107,574.047,570.061,0.0
49136.0,STARLINK-3084,PAYLOAD,2023-09-28 13:40:16,14.98332697,0.0002884,70.0041,6.3295,270.2262,89.8566,6.3373e-05,6.63e-06,0.0,0 STARLINK-3084,1 49136U 21082G   23271.56963995  .00000663  00000-0  63373-4 0  9994,2 49136  70.0041   6.3295 0002884 270.2262  89.8566 14.98332697112700,6950.185,96.107,574.054,570.045,0.0
49136.0,STARLINK-3084,PAYLOAD,2023-09-28 16:52:32,14.98333473,0.0002897,70.0041,5.9928,270.6395,89.4432,6.4941e-05,6.82e-06,0.0,0 STARLINK-3084,1 49136U 21082G   23271.70315959  .00000682  00000-0  64941-4 0  9994,2 49136  70.0041   5.9928 0002897 270.6395  89.4432 14.98333473112726,6950.182,96.107,574.061,570.034,0.0
49136.0,STARLINK-3084,PAYLOAD,2023-09-29 12:06:09,14.98333658,0.0003161,70.001,3.9719,271.4484,88.6313,-1.3877e-05,-2.59e-06,0.0,0 STARLINK-3084,1 49136U 21082G   23272.50428239 -.00000259  00000-0 -13877-4 0  9993,2 49136  70.0010   3.9719 0003161 271.4484  88.6313 14.98333658112848,6950.182,96.107,574.244,569.85,0.0
49136.0,STARLINK-3084,PAYLOAD,2023-09-29 13:42:17,14.98336824,0.0003102,70.0008,3.8032,269.3746,90.7058,1.7324e-05,1.14e-06,0.0,0 STARLINK-3084,1 49136U 21082G   23272.57103918  .00000114  00000-0  17324-4 0  9993,2 49136  70.0008   3.8032 0003102 269.3746  90.7058 14.98336824112853,6950.172,96.107,574.193,569.881,0.0
49136.0,STARLINK-3084,PAYLOAD,2023-09-29 15:18:25,14.98336814,0.0002922,70.0014,3.6352,265.9599,94.1226,5.3091e-05,5.41e-06,0.0,0 STARLINK-3084,1 49136U 21082G   23272.63779826  .00000541  00000-0  53091-4 0  9992,2 49136  70.0014   3.6352 0002922 265.9599  94.1226 14.98336814112865,6950.172,96.107,574.068,570.006,0.0
49136.0,STARLINK-3084,PAYLOAD,2023-09-30 12:08:10,14.98332721,0.0003038,70.0006,1.4461,266.9339,93.1472,0.00015495,1.756e-05,0.0,0 STARLINK-3084,1 49136U 21082G   23273.50567727  .00001756  00000-0  15495-3 0  9998,2 49136  70.0006   1.4461 0003038 266.9339  93.1472 14.98332721112994,6950.184,96.107,574.161,569.938,0.0
49136.0,STARLINK-3084,PAYLOAD,2023-10-01 12:10:10,14.98344446,0.0003096,70.0018,358.9209,267.1674,92.9131,0.00026701,3.096e-05,0.0,0 STARLINK-3084,1 49136U 21082G   23274.50706886  .00003096  00000-0  26701-3 0  9991,2 49136  70.0018 358.9209 0003096 267.1674  92.9131 14.98344446113140,6950.148,96.106,574.165,569.861,0.0
49136.0,STARLINK-3084,PAYLOAD,2023-10-01 15:22:26,14.98344594,0.0002962,70.0019,358.5843,264.4759,95.6062,0.00026262,3.043e-05,0.0,0 STARLINK-3084,1 49136U 21082G   23274.64058774  .00003043  00000-0  26262-3 0  9996,2 49136  70.0019 358.5843 0002962 264.4759  95.6062 14.98344594113165,6950.148,96.106,574.071,569.954,0.0
49136.0,STARLINK-3084,PAYLOAD,2023-10-02 12:12:12,14.98324067,0.0002944,70.0009,356.3983,270.0938,89.9883,-1.4008e-05,-2.6e-06,0.0,0 STARLINK-3084,1 49136U 21082G   23275.50848141 -.00000260  00000-0 -14008-4 0  9993,2 49136  70.0009 356.3983 0002944 270.0938  89.9883 14.98324067113291,6950.211,96.107,574.122,570.03,0.0
49136.0,STARLINK-3084,PAYLOAD,2023-10-02 15:24:28,14.98324587,0.0003027,70.0008,356.0619,270.0892,89.992,-7.7246e-05,-1.014e-05,0.0,0 STARLINK-3084,1 49136U 21082G   23275.64200215 -.00001014  00000-0 -77246-4 0  9993,2 49136  70.0008 356.0619 0003027 270.0892  89.9920 14.98324587113317,6950.21,96.107,574.178,569.971,0.0
49136.0,STARLINK-3084,PAYLOAD,2023-10-03 12:14:12,14.98339849,0.0003226,69.9997,353.8717,271.4328,88.6462,2.7908e-05,2.4e-06,0.0,0 STARLINK-3084,1 49136U 21082G   23276.50987081  .00000240  00000-0  27908-4 0  9990,2 49136  69.9997 353.8717 0003226 271.4328  88.6462 14.98339849113443,6950.162,96.106,574.27,569.785,0.0
49136.0,STARLINK-3084,PAYLOAD,2023-10-03 13:50:20,14.98341402,0.0003203,69.9996,353.703,271.6542,88.425,4.7817e-05,4.78e-06,0.0,0 STARLINK-3084,1 49136U 21082G   23276.57662915  .00000478  00000-0  47817-4 0  9997,2 49136  69.9996 353.7030 0003203 271.6542  88.4250 14.98341402113456,6950.158,96.106,574.249,569.796,0.0
49136.0,STARLINK-3084,PAYLOAD,2023-10-03 15:26:28,14.98343212,0.0003187,69.9997,353.5345,271.7303,88.3491,7.2552e-05,7.73e-06,0.0,0 STARLINK-3084,1 49136U 21082G   23276.64338728  .00000773  00000-0  72552-4 0  9999,2 49136  69.9997 353.5345 0003187 271.7303  88.3491 14.98343212113469,6950.152,96.106,574.232,569.802,0.0
49136.0,STARLINK-3084,PAYLOAD,2023-10-04 04:15:33,14.98328719,0.0003004,70.0001,352.1885,273.3864,86.6952,0.00022455,2.587e-05,0.0,0 STARLINK-3084,1 49136U 21082G   23277.17747378  .00002587  00000-0  22455-3 0  9994,2 49136  70.0001 352.1885 0003004 273.3864  86.6952 14.98328719113547,6950.197,96.107,574.15,569.974,0.0
49136.0,STARLINK-3084,PAYLOAD,2023-10-04 13:52:21,14.98337709,0.0002979,70.0012,351.1788,273.5446,86.5372,0.00032571,3.796e-05,0.0,0 STARLINK-3084,1 49136U 21082G   23277.57803127  .00003796  00000-0  32571-3 0  9996,2 49136  70.0012 351.1788 0002979 273.5446  86.5372 14.98337709113609,6950.169,96.107,574.105,569.964,0.0
49136.0,STARLINK-3084,PAYLOAD,2023-10-04 15:28:29,14.98340146,0.0002975,70.0013,351.0106,273.4732,86.6086,0.00036531,4.27e-05,0.0,0 STARLINK-3084,1 49136U 21082G   23277.64479002  .00004270  00000-0  36531-3 0  9993,2 49136  70.0013 351.0106 0002975 273.4732  86.6086 14.98340146113619,6950.162,96.106,574.094,569.959,0.0
49136.0,STARLINK-3084,PAYLOAD,2023-10-04 21:53:01,14.98346456,0.0002783,70.0024,350.3364,275.0778,85.0063,-0.0003861,-4.699e-05,0.0,0 STARLINK-3084,1 49136U 21082G   23277.91182438 -.00004699  00000-0 -38610-3 0  9994,2 49136  70.0024 350.3364 0002783 275.0778  85.0063 14.98346456113656,6950.142,96.106,573.941,570.073,0.0
49136.0,STARLINK-3084,PAYLOAD,2023-10-05 05:53:42,14.98333125,0.0002935,70.003,349.496,269.7403,90.342,8.9217e-05,9.72e-06,0.0,0 STARLINK-3084,1 49136U 21082G   23278.24563222  .00000972  00000-0  89217-4 0  9993,2 49136  70.0030 349.4960 0002935 269.7403  90.3420 14.98333125113709,6950.183,96.107,574.088,570.008,0.0
